NORAD_CAT_ID,OBJECT_NAME,OBJECT_TYPE,EPOCH,MEAN_MOTION,ECCENTRICITY,INCLINATION,RA_OF_ASC_NODE,ARG_OF_PERICENTER,MEAN_ANOMALY,BSTAR,MEAN_MOTION_DOT,MEAN_MOTION_DDOT,TLE_LINE0,TLE_LINE1,TLE_LINE2,SEMIMAJOR_AXIS,PERIOD,APOGEE,PERIGEE,DECAYED
55304.0,STARLINK-5318,PAYLOAD,2024-04-05 21:44:09,14.98333877,0.0002879,70.0009,356.2361,267.884,92.1989,2.4956e-05,2.05e-06,0.0,0 STARLINK-5318,1 55304U 23010AM  24096.90566122  .00000205  00000-0  24956-4 0  9992,2 55304  70.0009 356.2361 0002879 267.8840  92.1989 14.98333877 68007,6950.181,96.107,574.047,570.045,0.0
55304.0,STARLINK-5318,PAYLOAD,2024-04-06 10:33:13,14.98332425,0.0002598,70.0024,354.8892,269.2221,90.864,-8.7842e-05,-1.141e-05,0.0,0 STARLINK-5318,1 55304U 23010AM  24097.43974473 -.00001141  00000-0 -87842-4 0  9998,2 55304  70.0024 354.8892 0002598 269.2221  90.8640 14.98332425 67774,6950.185,96.107,573.856,570.245,0.0
55304.0,STARLINK-5318,PAYLOAD,2024-04-06 23:22:18,14.98331664,0.0002917,70.0004,353.5423,267.6798,92.4027,-4.2088e-05,-5.95e-06,0.0,0 STARLINK-5318,1 55304U 23010AM  24097.97382305 -.00000595  00000-0 -42088-4 0  9999,2 55304  70.0004 353.5423 0002917 267.6798  92.4027 14.98331664 68169,6950.188,96.107,574.08,570.025,0.0
55304.0,STARLINK-5318,PAYLOAD,2024-04-07 10:35:14,14.98329893,0.000273,70.0007,352.3629,270.8222,89.2624,-1.8714e-05,-3.16e-06,0.0,0 STARLINK-5318,1 55304U 23010AM  24098.44114435 -.00000316  00000-0 -18714-4 0  9999,2 55304  70.0007 352.3629 0002730 270.8222  89.2624 14.98329893 68234,6950.193,96.107,573.956,570.161,0.0
55304.0,STARLINK-5318,PAYLOAD,2024-04-07 23:24:19,14.98330828,0.0002915,69.9998,351.0166,266.3663,93.7163,-4.2854e-05,-6.04e-06,0.0,0 STARLINK-5318,1 55304U 23010AM  24098.97522322 -.00000604  00000-0 -42854-4 0  9997,2 55304  69.9998 351.0166 0002915 266.3663  93.7163 14.98330828 68313,6950.19,96.107,574.081,570.029,0.0
55304.0,STARLINK-5318,PAYLOAD,2024-04-08 10:37:15,14.98322189,0.0002848,69.9999,349.8382,269.3691,90.7142,0.00013994,1.577e-05,0.0,0 STARLINK-5318,1 55304U 23010AM  24099.44254470  .00001577  00000-0  13994-3 0  9996,2 55304  69.9999 349.8382 0002848 269.3691  90.7142 14.98322189 68076,6950.217,96.108,574.061,570.103,0.0
55304.0,STARLINK-5318,PAYLOAD,2024-04-08 23:26:19,14.98333391,0.0002866,70.0001,348.4917,267.1714,92.9117,4.1923e-05,4.07e-06,0.0,0 STARLINK-5318,1 55304U 23010AM  24099.97661865  .00000407  00000-0  41923-4 0  9999,2 55304  70.0001 348.4917 0002866 267.1714  92.9117 14.98333391 68460,6950.182,96.107,574.039,570.055,0.0
55304.0,STARLINK-5318,PAYLOAD,2024-04-09 02:38:35,14.98333681,0.0002966,69.9997,348.1551,267.9439,92.1381,4.7758e-05,4.77e-06,0.0,0 STARLINK-5318,1 55304U 23010AM  24100.11013793  .00000477  00000-0  47758-4 0  9998,2 55304  69.9997 348.1551 0002966 267.9439  92.1381 14.98333681 68170,6950.182,96.107,574.108,569.985,0.0
55304.0,STARLINK-5318,PAYLOAD,2024-04-10 02:40:37,14.98322529,0.0002915,70.0001,345.63,268.7704,91.3121,-6.4023e-05,-8.57e-06,0.0,0 STARLINK-5318,1 55304U 23010AM  24101.11155018 -.00000857  00000-0 -64023-4 0  9994,2 55304  70.0001 345.6300 0002915 268.7704  91.3121 14.98322529 68320,6950.216,96.107,574.107,570.055,0.0
55304.0,STARLINK-5318,PAYLOAD,2024-04-10 09:05:09,14.9832706,0.0002904,70.0,344.9567,268.9485,91.1341,-8.7478e-06,-1.97e-06,0.0,0 STARLINK-5318,1 55304U 23010AM  24101.37858673 -.00000197  00000-0 -87478-5 0  9996,2 55304  70.0000 344.9567 0002904 268.9485  91.1341 14.98327060 68677,6950.202,96.107,574.085,570.049,0.0
55304.0,STARLINK-5318,PAYLOAD,2024-04-10 21:54:14,14.983255,0.0002945,69.9999,343.6103,270.0325,90.0496,-5.5455e-05,-7.55e-06,0.0,0 STARLINK-5318,1 55304U 23010AM  24101.91266997 -.00000755  00000-0 -55455-4 0  9997,2 55304  69.9999 343.6103 0002945 270.0325  90.0496 14.98325500 68750,6950.207,96.107,574.119,570.025,0.0
55304.0,STARLINK-5318,PAYLOAD,2024-04-11 02:42:39,14.98323515,0.0003088,69.9995,343.105,270.3238,89.7567,-8.9171e-05,-1.157e-05,0.0,0 STARLINK-5318,1 55304U 23010AM  24102.11295275 -.00001157  00000-0 -89171-4 0  9990,2 55304  69.9995 343.1050 0003088 270.3238  89.7567 14.98323515 68474,6950.213,96.107,574.224,569.932,0.0
55304.0,STARLINK-5318,PAYLOAD,2024-04-11 09:07:11,14.98326429,0.0003101,69.9995,342.4317,270.2126,89.8678,-4.9001e-05,-6.78e-06,0.0,0 STARLINK-5318,1 55304U 23010AM  24102.37999080 -.00000678  00000-0 -49001-4 0  9998,2 55304  69.9995 342.4317 0003101 270.2126  89.8678 14.98326429 68823,6950.204,96.107,574.224,569.914,0.0
55304.0,STARLINK-5318,PAYLOAD,2024-04-11 21:56:15,14.98364506,0.0003053,69.9996,341.085,274.3359,85.7451,-0.00049439,-5.992e-05,0.0,0 STARLINK-5318,1 55304U 23010AM  24102.91406703 -.00005992  00000-0 -49439-3 0  9991,2 55304  69.9996 341.0850 0003053 274.3359  85.7451 14.98364506 68596,6950.086,96.105,574.073,569.829,0.0
55304.0,STARLINK-5318,PAYLOAD,2024-04-12 01:08:31,14.98331519,0.0002952,69.9995,340.7481,275.0074,85.0748,0.00010142,1.117e-05,0.0,0 STARLINK-5318,1 55304U 23010AM  24103.04758570  .00001117  00000-0  10142-3 0  9990,2 55304  69.9995 340.7481 0002952 275.0074  85.0748 14.98331519 68613,6950.188,96.107,574.105,570.001,0.0
55304.0,STARLINK-5318,PAYLOAD,2024-04-12 21:58:15,14.98332461,0.0003027,69.9997,338.5595,266.9913,93.0899,0.00016049,1.823e-05,0.0,0 STARLINK-5318,1 55304U 23010AM  24103.91546013  .00001823  00000-0  16049-3 0  9999,2 55304  69.9997 338.5595 0003027 266.9913  93.0899 14.98332461 69053,6950.185,96.107,574.154,569.946,0.0
55304.0,STARLINK-5318,PAYLOAD,2024-04-13 01:10:31,14.98335151,0.000312,69.9993,338.2231,269.1862,90.894,0.00018036,2.06e-05,0.0,0 STARLINK-5318,1 55304U 23010AM  24104.04897741  .00002060  00000-0  18036-3 0  9993,2 55304  69.9993 338.2231 0003120 269.1862  90.8940 14.98335151 68763,6950.177,96.107,574.21,569.874,0.0
55304.0,STARLINK-5318,PAYLOAD,2024-04-13 20:24:08,14.98333543,0.0002866,70.0001,336.2037,264.2253,95.8579,-1.2893e-05,-2.47e-06,0.0,0 STARLINK-5318,1 55304U 23010AM  24104.85010156 -.00000247  00000-0 -12893-4 0  9992,2 55304  70.0001 336.2037 0002866 264.2253  95.8579 14.98333543 69198,6950.182,96.107,574.039,570.055,0.0
55304.0,STARLINK-5318,PAYLOAD,2024-04-14 01:12:32,14.9833349,0.0002824,70.0001,335.6982,262.4103,97.6735,6.0111e-05,6.24e-06,0.0,0 STARLINK-5318,1 55304U 23010AM  24105.05037892  .00000624  00000-0  60111-4 0  9994,2 55304  70.0001 335.6982 0002824 262.4103  97.6735 14.98333490 68912,6950.182,96.107,574.01,570.084,0.0
55304.0,STARLINK-5318,PAYLOAD,2024-04-14 22:02:17,14.98332478,0.0002901,70.0,333.5111,249.5768,110.508,-5.4726e-05,-7.46e-06,0.0,0 STARLINK-5318,1 55304U 23010AM  24105.91825820 -.00000746  00000-0 -54726-4 0  9997,2 55304  70.0000 333.5111 0002901 249.5768 110.5080 14.98332478 69353,6950.185,96.107,574.066,570.034,0.0
55304.0,STARLINK-5318,PAYLOAD,2024-04-15 01:14:33,14.98332484,0.0002692,70.0001,333.1746,259.9525,100.133,-3.7184e-05,-5.37e-06,0.0,0 STARLINK-5318,1 55304U 23010AM  24106.05177828 -.00000537  00000-0 -37184-4 0  9998,2 55304  70.0001 333.1746 0002692 259.9525 100.1330 14.98332484 69065,6950.185,96.107,573.921,570.179,0.0
55304.0,STARLINK-5318,PAYLOAD,2024-04-15 14:03:38,14.98332223,0.000273,69.9998,331.8277,260.6613,99.4237,-7.1249e-06,-1.78e-06,0.0,0 STARLINK-5318,1 55304U 23010AM  24106.58585662 -.00000178  00000-0 -71249-5 0  9997,2 55304  69.9998 331.8277 0002730 260.6613  99.4237 14.98332223 69451,6950.186,96.107,573.948,570.154,0.0
55304.0,STARLINK-5318,PAYLOAD,2024-04-15 20:28:10,14.98319735,0.0002651,70.0,331.1542,264.081,96.0047,0.00017412,1.985e-05,0.0,0 STARLINK-5318,1 55304U 23010AM  24106.85289912  .00001985  00000-0  17412-3 0  9991,2 55304  70.0000 331.1542 0002651 264.0810  96.0047 14.98319735 69494,6950.225,96.108,573.932,570.247,0.0
55304.0,STARLINK-5318,PAYLOAD,2024-04-16 01:16:35,14.98289598,0.0002479,69.9999,330.6496,263.6621,96.4256,0.00067474,7.958e-05,0.0,0 STARLINK-5318,1 55304U 23010AM  24107.05318737  .00007958  00000-0  67474-3 0  9991,2 55304  69.9999 330.6496 0002479 263.6621  96.4256 14.98289598 69212,6950.318,96.11,573.906,570.46,0.0
55304.0,STARLINK-5318,PAYLOAD,2024-04-16 07:41:06,14.98330404,0.000271,70.0,329.9762,266.5677,93.5172,-1.464e-05,-2.68e-06,0.0,0 STARLINK-5318,1 55304U 23010AM  24107.32021834 -.00000268  00000-0 -14640-4 0  9997,2 55304  70.0000 329.9762 0002710 266.5677  93.5172 14.98330404 69258,6950.192,96.107,573.94,570.173,0.0
55304.0,STARLINK-5318,PAYLOAD,2024-04-16 22:06:18,14.98337476,0.000263,69.999,328.4592,267.3327,92.7531,7.3839e-05,7.88e-06,0.0,0 STARLINK-5318,1 55304U 23010AM  24107.92105003  .00000788  00000-0  73839-4 0  9994,2 55304  69.9990 328.4592 0002630 267.3327  92.7531 14.98337476 69650,6950.17,96.107,573.863,570.207,0.0
55304.0,STARLINK-5318,PAYLOAD,2024-04-17 01:18:34,14.98336903,0.000266,69.9992,328.1224,267.0873,92.9981,0.00014438,1.63e-05,0.0,0 STARLINK-5318,1 55304U 23010AM  24108.05456796  .00001630  00000-0  14438-3 0  9993,2 55304  69.9992 328.1224 0002660 267.0873  92.9981 14.98336903 69360,6950.172,96.107,573.885,570.188,0.0
55304.0,STARLINK-5318,PAYLOAD,2024-04-17 20:32:12,14.98322214,0.0003425,69.9979,326.1022,269.6358,90.4408,-8.5086e-05,-1.108e-05,0.0,0 STARLINK-5318,1 55304U 23010AM  24108.85570257 -.00001108  00000-0 -85086-4 0  9990,2 55304  69.9979 326.1022 0003425 269.6358  90.4408 14.98322214 69485,6950.217,96.107,574.462,569.702,0.0
55304.0,STARLINK-5318,PAYLOAD,2024-04-17 23:44:28,14.98324133,0.0003118,69.9986,325.7663,262.7854,97.2951,-4.5781e-05,-6.39e-06,0.0,0 STARLINK-5318,1 55304U 23010AM  24108.98922066 -.00000639  00000-0 -45781-4 0  9999,2 55304  69.9986 325.7663 0003118 262.7854  97.2951 14.98324133 69810,6950.211,96.107,574.243,569.909,0.0
55304.0,STARLINK-5318,PAYLOAD,2024-04-18 20:34:13,14.98329592,0.0002877,69.9986,323.576,260.5611,99.5223,-3.193e-05,-4.74e-06,0.0,0 STARLINK-5318,1 55304U 23010AM  24109.85709808 -.00000474  00000-0 -31930-4 0  9991,2 55304  69.9986 323.5760 0002877 260.5611  99.5223 14.98329592 69633,6950.194,96.107,574.059,570.06,0.0
